{
  "type": "FeatureCollection",
  "name": "alert-risk-demo",
  "features": [
    { "type": "Feature", "properties": { "id": "climate-gh1-01", "risk_type": "climate", "risk_score": 88, "severity": "warning", "field_id": "greenhouse-1", "alert_id": "climate-heat-gh1", "title": "高温闷棚风险", "scope": "1号温室", "confidence": 82, "source": "demo-baseline" }, "geometry": { "type": "Point", "coordinates": [113.53294, 22.73871] } },
    { "type": "Feature", "properties": { "id": "climate-gh1-02", "risk_type": "climate", "risk_score": 82, "severity": "warning", "field_id": "greenhouse-1", "alert_id": "climate-heat-gh1", "title": "高温闷棚风险", "scope": "1号温室", "confidence": 82, "source": "demo-baseline" }, "geometry": { "type": "Point", "coordinates": [113.53182, 22.73815] } },
    { "type": "Feature", "properties": { "id": "climate-gh1-03", "risk_type": "climate", "risk_score": 76, "severity": "attention", "field_id": "greenhouse-1", "alert_id": "climate-storm-gh1", "title": "强对流关注", "scope": "核心温室区", "confidence": 71, "source": "demo-baseline" }, "geometry": { "type": "Point", "coordinates": [113.53415, 22.73922] } },
    { "type": "Feature", "properties": { "id": "climate-gh1-04", "risk_type": "climate", "risk_score": 68, "severity": "attention", "field_id": "greenhouse-1", "alert_id": "climate-storm-gh1", "title": "强对流关注", "scope": "核心温室区", "confidence": 71, "source": "demo-baseline" }, "geometry": { "type": "Point", "coordinates": [113.53337, 22.73743] } },
    { "type": "Feature", "properties": { "id": "climate-field-a-01", "risk_type": "climate", "risk_score": 91, "severity": "warning", "field_id": "field-a", "alert_id": "climate-dry-field-a", "title": "高温干旱风险", "scope": "A区露地", "confidence": 86, "source": "demo-baseline" }, "geometry": { "type": "Point", "coordinates": [113.53921, 22.73383] } },
    { "type": "Feature", "properties": { "id": "climate-field-a-02", "risk_type": "climate", "risk_score": 84, "severity": "warning", "field_id": "field-a", "alert_id": "climate-dry-field-a", "title": "高温干旱风险", "scope": "A区露地", "confidence": 86, "source": "demo-baseline" }, "geometry": { "type": "Point", "coordinates": [113.54105, 22.73514] } },
    { "type": "Feature", "properties": { "id": "climate-field-a-03", "risk_type": "climate", "risk_score": 72, "severity": "attention", "field_id": "field-a", "alert_id": "climate-dry-field-a", "title": "高温干旱风险", "scope": "A区露地", "confidence": 86, "source": "demo-baseline" }, "geometry": { "type": "Point", "coordinates": [113.53748, 22.73265] } },
    { "type": "Feature", "properties": { "id": "climate-orchard-b-01", "risk_type": "climate", "risk_score": 74, "severity": "attention", "field_id": "orchard-b", "alert_id": "climate-rain-orchard-b", "title": "持续降雨关注", "scope": "B区果园", "confidence": 76, "source": "demo-baseline" }, "geometry": { "type": "Point", "coordinates": [113.52273, 22.73786] } },
    { "type": "Feature", "properties": { "id": "climate-orchard-b-02", "risk_type": "climate", "risk_score": 69, "severity": "attention", "field_id": "orchard-b", "alert_id": "climate-rain-orchard-b", "title": "持续降雨关注", "scope": "B区果园", "confidence": 76, "source": "demo-baseline" }, "geometry": { "type": "Point", "coordinates": [113.52441, 22.73563] } },
    { "type": "Feature", "properties": { "id": "pest-gh1-01", "risk_type": "pest", "risk_score": 81, "severity": "attention", "field_id": "greenhouse-1", "alert_id": "pest-whitefly-gh1", "title": "粉虱活动风险", "scope": "东侧 2 排", "confidence": 78, "source": "demo-baseline" }, "geometry": { "type": "Point", "coordinates": [113.53402, 22.73834] } },
    { "type": "Feature", "properties": { "id": "pest-gh1-02", "risk_type": "pest", "risk_score": 78, "severity": "attention", "field_id": "greenhouse-1", "alert_id": "pest-whitefly-gh1", "title": "粉虱活动风险", "scope": "东侧 2 排", "confidence": 78, "source": "demo-baseline" }, "geometry": { "type": "Point", "coordinates": [113.53446, 22.73776] } },
    { "type": "Feature", "properties": { "id": "pest-gh1-03", "risk_type": "pest", "risk_score": 71, "severity": "attention", "field_id": "greenhouse-1", "alert_id": "pest-whitefly-gh1", "title": "粉虱活动风险", "scope": "东侧 2 排", "confidence": 78, "source": "demo-baseline" }, "geometry": { "type": "Point", "coordinates": [113.53372, 22.73718] } },
    { "type": "Feature", "properties": { "id": "pest-field-a-01", "risk_type": "pest", "risk_score": 92, "severity": "warning", "field_id": "field-a", "alert_id": "pest-aphid-field-a", "title": "蚜虫扩散风险", "scope": "西南角 0.6 ha", "confidence": 84, "source": "demo-baseline" }, "geometry": { "type": "Point", "coordinates": [113.53805, 22.73168] } },
    { "type": "Feature", "properties": { "id": "pest-field-a-02", "risk_type": "pest", "risk_score": 86, "severity": "warning", "field_id": "field-a", "alert_id": "pest-aphid-field-a", "title": "蚜虫扩散风险", "scope": "西南角 0.6 ha", "confidence": 84, "source": "demo-baseline" }, "geometry": { "type": "Point", "coordinates": [113.53969, 22.73315] } },
    { "type": "Feature", "properties": { "id": "pest-field-a-03", "risk_type": "pest", "risk_score": 79, "severity": "attention", "field_id": "field-a", "alert_id": "pest-aphid-field-a", "title": "蚜虫扩散风险", "scope": "西南角 0.6 ha", "confidence": 84, "source": "demo-baseline" }, "geometry": { "type": "Point", "coordinates": [113.53749, 22.73310] } },
    { "type": "Feature", "properties": { "id": "pest-orchard-b-01", "risk_type": "pest", "risk_score": 58, "severity": "normal", "field_id": "orchard-b", "alert_id": "pest-psyllid-orchard-b", "title": "柑橘木虱监测", "scope": "北侧 12 株", "confidence": 66, "source": "demo-baseline" }, "geometry": { "type": "Point", "coordinates": [113.52067, 22.73913] } },
    { "type": "Feature", "properties": { "id": "pest-orchard-b-02", "risk_type": "pest", "risk_score": 54, "severity": "normal", "field_id": "orchard-b", "alert_id": "pest-psyllid-orchard-b", "title": "柑橘木虱监测", "scope": "北侧 12 株", "confidence": 66, "source": "demo-baseline" }, "geometry": { "type": "Point", "coordinates": [113.52231, 22.73644] } },
    { "type": "Feature", "properties": { "id": "pest-orchard-b-03", "risk_type": "pest", "risk_score": 49, "severity": "normal", "field_id": "orchard-b", "alert_id": "pest-psyllid-orchard-b", "title": "柑橘木虱监测", "scope": "北侧 12 株", "confidence": 66, "source": "demo-baseline" }, "geometry": { "type": "Point", "coordinates": [113.52499, 22.73654] } }
  ]
}
