{
  "type": "FeatureCollection",
  "name": "farmclaw-security",
  "crs": { "type": "name", "properties": { "name": "urn:ogc:def:crs:OGC:1.3:CRS84" } },
  "features": [
    {
      "type": "Feature",
      "properties": { "id": "FENCE-PERIMETER", "kind": "fence", "name": "园区周界", "zone": "全园区", "level": "critical", "status": "alarm", "rule": "全天布防 · 人车越界告警", "incidents": 1 },
      "geometry": { "type": "MultiPolygon", "coordinates": [[[[113.517295355241529,22.740432231650772],[113.518850098025197,22.740525516217794],[113.522301627004907,22.740712085351831],[113.522674765272981,22.740307852228081],[113.522270532149236,22.739872524248657],[113.522519290994623,22.739468291124908],[113.524291697767993,22.741396172176639],[113.527121329634241,22.74319967380568],[113.52799198559309,22.743137484094333],[113.528520598139536,22.743510622362411],[113.531598988851172,22.744350183465585],[113.536263217202134,22.74379047606347],[113.536511976047521,22.744132519475876],[113.54599590702783,22.743106389238662],[113.554236043781202,22.737260556372114],[113.543010800883209,22.725444511216327],[113.541984670646002,22.723951958144017],[113.536169932635119,22.72786990995883],[113.531039281449054,22.7312592492272],[113.526437242809436,22.733498078835666],[113.521648635035774,22.735301580464707],[113.519720753984032,22.736545374691634],[113.517917252354991,22.738846394011443],[113.517295355241529,22.740432231650772]]]] }
    },
    {
      "type": "Feature",
      "properties": { "id": "FENCE-GREENHOUSE", "kind": "fence", "name": "核心温室区", "zone": "温室生产区", "level": "high", "status": "armed", "rule": "非作业时段禁止进入", "incidents": 0 },
      "geometry": { "type": "MultiPolygon", "coordinates": [[[[113.51863097588519,22.74044813842178],[113.51864570613574,22.740232094747093],[113.52080368784085,22.740357301876738],[113.52078159246503,22.740573345551425],[113.51863097588519,22.74044813842178]]],[[[113.53889274239232,22.729047845139156],[113.53923890328016,22.72937191065119],[113.53933955999224,22.72927861906439],[113.53899339910438,22.72895700859412],[113.53889274239232,22.729047845139156]]],[[[113.52741787721632,22.735975972979688],[113.52795307631953,22.73673703592461],[113.52845881492163,22.736437520830155],[113.52790397548438,22.735642087300626],[113.52741787721632,22.735975972979688]]],[[[113.52101021822845,22.736746856091646],[113.52136374424157,22.737306605612424],[113.52189894334478,22.737007090517974],[113.52153068708111,22.73646207124774],[113.52101021822845,22.736746856091646]]],[[[113.52161415850087,22.736378599827972],[113.52197259459751,22.73698745018391],[113.522596175204,22.736658474588364],[113.52225737944141,22.736069264566492],[113.52161415850087,22.736378599827972]]],[[[113.52235067102822,22.736162556153285],[113.52262809074685,22.73664374433782],[113.5238236960829,22.736015253647818],[113.52352418098845,22.735514425129224],[113.52235067102822,22.736162556153285]]],[[[113.52362483770051,22.735542658109445],[113.52386788683452,22.735960015208274],[113.52490636949808,22.735407630812766],[113.52465595523879,22.735014824131518],[113.52362483770051,22.735542658109445]]],[[[113.52471978632447,22.734955903129322],[113.52497511066728,22.735356074935844],[113.5256085114408,22.7350270993403],[113.5253286366804,22.73459992207444],[113.52471978632447,22.734955903129322]]],[[[113.52155769254043,22.737307833133308],[113.52176759861074,22.73762085095745],[113.52219968596012,22.737387621990457],[113.52198425604587,22.73706355647843],[113.52155769254043,22.737307833133308]]],[[[113.52204379080847,22.737062328957528],[113.52223651158648,22.737363071572872],[113.52358678455327,22.736636379212563],[113.52339897385878,22.73633318155546],[113.52204379080847,22.737062328957528]]],[[[113.52340142890056,22.736303721054373],[113.5236039698456,22.73660691871147],[113.52590802653528,22.735356074935865],[113.52570671311115,22.735054104799655],[113.52340142890056,22.736303721054373]]],[[[113.53902715592862,22.728917727926028],[113.53938559202527,22.729249158563334],[113.5395058890714,22.729168142185326],[113.53912535759893,22.72881707121396],[113.53902715592862,22.728917727926028]]],[[[113.53915972818355,22.728812161130442],[113.53953043948898,22.729133771600715],[113.53963846132632,22.729047845139192],[113.53926283993738,22.728723779627163],[113.53915972818355,22.728812161130442]]],[[[113.53930703068902,22.728679588875522],[113.53966546678566,22.72900856447107],[113.53976612349773,22.728925093051302],[113.53941014244285,22.72856911199642],[113.53930703068902,22.728679588875522]]],[[[113.54014174488667,22.727891520471264],[113.54050263602507,22.72824504648439],[113.54061802298769,22.728141934730562],[113.54023749151523,22.727798228884467],[113.54014174488667,22.727891520471264]]],[[[113.54023749151523,22.727798228884467],[113.54061802298769,22.728141934730562],[113.540716224658,22.728048643143765],[113.54035042343608,22.7276975721724],[113.54023749151523,22.727798228884467]]],[[[113.54035042343608,22.7276975721724],[113.540716224658,22.728048643143765],[113.54080951624479,22.727955351556965],[113.5404486251064,22.727606735627354],[113.54035042343608,22.7276975721724]]],[[[113.5404486251064,22.727606735627354],[113.54080951624479,22.727955351556965],[113.54092735824918,22.727842419636104],[113.5405591019855,22.727503623873528],[113.5404486251064,22.727606735627354]]]] }
    },
    {
      "type": "Feature",
      "properties": { "id": "FENCE-WAREHOUSE", "kind": "fence", "name": "仓储禁入区", "zone": "西北仓储区", "level": "high", "status": "armed", "rule": "双人授权 · 开门留痕", "incidents": 0 },
      "geometry": { "type": "Polygon", "coordinates": [[[113.5178,22.7354],[113.5279,22.7354],[113.5279,22.7420],[113.5178,22.7420],[113.5178,22.7354]]] }
    },
    {
      "type": "Feature",
      "properties": { "id": "FENCE-WATER", "kind": "fence", "name": "水岸警戒区", "zone": "东南水域", "level": "medium", "status": "disarmed", "rule": "夜间 20:00-06:00 布防", "incidents": 0 },
      "geometry": { "type": "Polygon", "coordinates": [[[113.5420,22.7248],[113.5534,22.7248],[113.5534,22.7338],[113.5420,22.7338],[113.5420,22.7248]]] }
    },
    {
      "type": "Feature",
      "properties": { "id": "CAM-NORTH-01", "kind": "camera", "name": "北门入口", "zone": "园区周界", "status": "online", "type": "ptz", "direction": 165, "fov": 82, "last_seen": "2026-08-25 19:30:12", "resolution": "4MP", "note": "车辆与访客识别" },
      "geometry": { "type": "Point", "coordinates": [113.5324,22.7430] }
    },
    {
      "type": "Feature",
      "properties": { "id": "CAM-WEST-02", "kind": "camera", "name": "西区仓库", "zone": "西北仓储区", "status": "alarm", "type": "fixed", "direction": 105, "fov": 68, "last_seen": "2026-08-25 19:29:56", "resolution": "4MP", "note": "检测到人员滞留" },
      "geometry": { "type": "Point", "coordinates": [113.5220,22.7388] }
    },
    {
      "type": "Feature",
      "properties": { "id": "CAM-GH-03", "kind": "camera", "name": "温室主通道", "zone": "核心温室区", "status": "online", "type": "ptz", "direction": 65, "fov": 90, "last_seen": "2026-08-25 19:30:08", "resolution": "4K", "note": "作业人员与设备巡检" },
      "geometry": { "type": "Point", "coordinates": [113.5302,22.7352] }
    },
    {
      "type": "Feature",
      "properties": { "id": "CAM-GH-04", "kind": "camera", "name": "温室东侧", "zone": "核心温室区", "status": "online", "type": "fixed", "direction": 245, "fov": 72, "last_seen": "2026-08-25 19:30:01", "resolution": "4MP", "note": "东侧围栏覆盖" },
      "geometry": { "type": "Point", "coordinates": [113.5388,22.7334] }
    },
    {
      "type": "Feature",
      "properties": { "id": "CAM-WATER-05", "kind": "camera", "name": "水岸通道", "zone": "东南水域", "status": "offline", "type": "fixed", "direction": 320, "fov": 70, "last_seen": "2026-08-25 18:42:17", "resolution": "2MP", "note": "等待网络检修" },
      "geometry": { "type": "Point", "coordinates": [113.5473,22.7287] }
    },
    {
      "type": "Feature",
      "properties": { "id": "CAM-SOUTH-06", "kind": "camera", "name": "南侧机耕道", "zone": "园区周界", "status": "online", "type": "ptz", "direction": 15, "fov": 86, "last_seen": "2026-08-25 19:30:10", "resolution": "4MP", "note": "无人机起降区联动" },
      "geometry": { "type": "Point", "coordinates": [113.5355,22.7257] }
    },
    {
      "type": "Feature",
      "properties": { "id": "CAM-EAST-07", "kind": "camera", "name": "东区服务站", "zone": "东部服务区", "status": "maintenance", "type": "fixed", "direction": 270, "fov": 65, "last_seen": "2026-08-25 17:18:36", "resolution": "4MP", "note": "镜头清洁维护" },
      "geometry": { "type": "Point", "coordinates": [113.5333,22.7330] }
    },
    {
      "type": "Feature",
      "properties": { "id": "CAM-CENTER-08", "kind": "camera", "name": "检测中心路口", "zone": "检测中心", "status": "online", "type": "ptz", "direction": 195, "fov": 95, "last_seen": "2026-08-25 19:30:06", "resolution": "4K", "note": "十字路口全景覆盖" },
      "geometry": { "type": "Point", "coordinates": [113.5398,22.7291] }
    }
  ]
}
